{
  "norad_id": 66408,
  "name": "STARLINK-35679",
  "history": [
    {
      "epoch": "2026-03-28T10:21:39.882240",
      "apogee_km": 476.38879022802485,
      "perigee_km": 474.0367205919674,
      "latitude_deg": -53.1265639790558,
      "longitude_deg": 142.24431360000744,
      "semi_major_axis_km": 6853.349755409996,
      "eccentricity": 0.0001716,
      "inclination_deg": 53.1604,
      "raan_deg": 129.9067,
      "arg_perigee_deg": 88.9421,
      "mean_anomaly_deg": 271.1777,
      "mean_motion_rev_day": 15.30200775
    }
  ]
}