{"fetched_at":"2026-03-29T02:12:04Z","count":15717,"tles":[{"name":"STARLINK-35679","line1":"1 66408U 25257AE  26087.43171160  .00012214  00000+0  42383-3 0  9993","line2":"2 66408  53.1604 129.9067 0001716  88.9421 271.1777 15.30200775 22608","category":"Starlink"}]}